#dP2022  2 27  0  0  0.00000000      96 __u+U ITR00 FIT  IAC
## 2199      0.00000000   900.00000000 59637 0.0000000000000
+  129   C01C02C03C04C05C06C07C08C09C10C11C12C13C14C16C19C20
+        C21C22C23C24C25C26C27C28C29C30C32C33C34C35C36C37C38
+        C39C40C41C42C43C44C45C46C59C60E01E02E03E04E05E07E08
+        E09E10E11E12E13E14E15E18E19E21E24E25E26E27E30E31E33
+        E34E36G01G02G03G04G05G06G07G08G09G10G11G12G13G14G15
+        G16G17G18G19G20G21G22G23G24G25G26G27G28G29G30G31G32
+        J01J02J03J07R01R02R03R04R05R06R07R08R09R10R11R12R13
+        R14R15R17R18R19R20R21R22R23R24  0  0  0  0  0  0  0
++        15 14 14 14 14  9  9  9  8  8  9  8  8  8  9  7  7
++         7  7  7  7  7  7  7  7  7  7  7  7  7  7  7  7  8
++         8  8  8  7  7  7  7  7  0 17  4  4  4  4  4  4  4
++         4  4  4  4  4  4  4  5  4  4  4  4  4  4  4  4  4
++         4  4  3  4  3  4  4  3  4  4  4  3  4  3  4  4  4
++         4  3  4  3  4  3  3  4  4  3  4  4  4  4  4  3  3
++         8  8  8  0  7  6  5  6  6 13  6  6  6 13  8  6  7
++         6  6  6  6  7  7  6  7 13  6  0  0  0  0  0  0  0
%c M  cc GPS ccc cccc cccc cccc cccc ccccc ccccc ccccc ccccc
%c cc cc ccc ccc cccc cccc cccc cccc ccccc ccccc ccccc ccccc
%f  0.0000000  0.000000000  0.00000000000  0.000000000000000
%f  0.0000000  0.000000000  0.00000000000  0.000000000000000
%i    0    0    0    0      0      0      0      0         0
%i    0    0    0    0      0      0      0      0         0
/* INFORMATION & ANALYSIS CENTER (IAC)            RAPID DATA
/* S/V CLOCKS ARE ALIGNED TO GNSS TIME                      
/* G:C1WC2W R:C1PC2P E:C1XC5X C:C2IC6I J:C1CC2S             
/* PCV:IGS14_2196 OL/AL:FES2004  NONE     YN ORB:CoN CLK:CoN
*  2022 02 27 17 30  0.00000000
PC01 -34268.481288  24527.902279    335.613987    -82.505063
PC02   4409.152443  41957.616458   1092.095766    275.471638
PC03 -14885.491494  39437.590868   1255.370233    904.287267
PC04 -39628.140044  14361.750482    198.397522     15.580959
PC05  21953.394369  35999.598173    788.213300   -411.666509
PC06 -15894.001241  38844.529242  -5092.695712    125.061212
PC07  -3261.611258  31903.581503 -27307.150069   -106.131178
PC08 -14676.555425  20629.692574  33691.680393    163.654654
PC09  -9836.764825  38398.585274 -14741.380750   -560.392610
PC10   4008.386753  34752.488802 -22959.301501    139.531036
PC11  14676.602662   4877.886566  23295.327393   -182.131007
PC12   2710.820483  21142.839775  18044.322293    681.525760
PC13  -4991.415974  22758.902687  35245.224643   -104.234866
PC14  20401.836052  14025.435079 -12798.994361    452.565353
PC16 -16484.542078  38745.536335  -3860.108861     91.820710
PC19 -19470.158442  -4665.158414  19476.204740    891.882952
PC20 -18611.382763 -19987.495435   5820.583056   -833.155043
PC21   6415.390510  24244.766881  12239.134156   -933.303113
PC22  -9124.108445  13939.962628  22388.692188   -958.804611
PC23  20249.603888 -12165.726551  14858.200361   -951.913284
PC24  18558.161290  11306.945164 -17540.024163   -944.694760
PC25  27832.114990  -1929.580583  -1075.582941   -773.179655
PC26    496.140357  16280.719904 -22672.219049    773.148883
PC27   4116.078591 -25318.214971 -10984.366423    684.109778
PC28  15859.577932 -22072.133351   6329.902618     37.686188
PC29 -18188.424289   6263.793804 -20225.140388    520.906790
PC30 -10182.756931 -14157.673174 -21784.665386    494.199913
PC32  -6607.705119 -24196.149269 -12220.928379   -971.076362
PC33  19516.464831   4622.576845 -19388.224299   -960.704783
PC34  10777.875864  13328.804748  22016.803133   -459.483606
PC35 -15443.949660  22175.120723  -7053.896442    159.280004
PC36 -27843.045857    939.260270   1560.738890   -921.210172
PC37   1256.627409 -16336.672103  22598.257418   -952.342274
PC38 -21211.702979  21715.520131  29229.856852    214.439573
PC39 -18428.122539  37874.770964   3384.489320     34.826442
PC40  -5811.593678  27861.532333 -31066.732888    248.049812
PC41   9400.431217 -13625.103707 -22411.406796   -945.249760
PC42  18231.983618  20552.742658  -4798.238012   -933.815232
PC43  18185.241454  -5413.634590  20446.570292   -939.127044
PC44  -3372.685876  25560.572014  10717.475747    578.699516
PC45 -20020.297418  12218.146170 -15106.484201    691.702850
PC46 -19707.883200 -10492.483666  16710.054690   -191.231931
PC59      0.000000      0.000000      0.000000 999999.999999
PC60   7290.074854  41521.815675    717.288881 999999.999999
PE01 -24000.043032   1733.999612 -17233.286964   -587.250638
PE02  23939.250598  -1829.340098  17322.270358    283.022270
PE03  15506.528822  -9887.149352 -23196.678636   -532.199050
PE04  -5896.154892  26499.682156  11807.953219   -973.840137
PE05  16189.846975  12877.832810 -21168.934654   -205.049773
PE07  -7450.372846 -27817.515134   6865.378489   -643.340737
PE08   5459.919246 -26725.313521 -11502.339919   -486.806704
PE09   7642.065358  27695.783386  -7095.331937   5345.619292
PE10  -7261.836104  20929.076929  19630.295289   -497.703690
PE11   3355.945408  16878.573205  24082.807259   4352.486753
PE12 -16271.220059  21491.227435  12259.695773   4738.260535
PE13  -2694.276318 -17152.244694 -23962.692798    426.884056
PE14   -793.754192  24699.407670   2038.587556  -1760.720887
PE15  16343.553605 -21473.541268 -12141.395038    760.755194
PE18  -8303.227310 -27556.688610 -13836.802296  -1742.525614
PE19 -16036.801300   7096.641538  23853.464550   -488.291371
PE21 -27120.763554 -11804.145713   -978.164070   -719.648857
PE24  13528.697391  19602.458011 -17612.014529  -1413.841571
PE25  27068.925216  11973.428139    719.997631   -565.082440
PE26 -20731.610652  -2104.925014 -21015.844112   -854.840864
PE27 -14803.256954 -19389.777061  16750.775872   -241.935654
PE30   7355.394980 -14981.331169  24432.982191   -308.469703
PE31  -6094.610547  15506.785769 -24463.633820   -492.806571
PE33 -25658.959126  13128.563128  -6764.775448   -459.034767
PE34  25611.777645 -13304.511601   6575.769951   -504.104973
PE36  20006.328991   2804.043459  21636.703605   -338.307901
PG01   4848.411367 -17175.867528 -19830.530680    420.980896
PG02 -21071.980159  16044.382045   3441.503627   -651.575481
PG03  -5758.864005 -18455.181817 -18362.723106   -140.917986
PG04    511.841982 -26427.663744   2092.000784   -186.946542
PG05 -10708.427368  11167.328975  21441.624533    -72.922778
PG06 -23656.936381   3721.488466 -11501.105522    215.056407
PG07 -12323.275640 -10796.059198  21364.518508    313.149792
PG08   6440.802069 -24085.932015   8601.277096    -57.859937
PG09  -8110.452934 -22139.969743  12124.903823   -352.257019
PG10  23775.628081  11203.905343  -4656.774324   -332.395961
PG11 -23222.978581  12605.026301   2636.866227    -75.878654
PG12   1397.221936  17935.416916 -19849.216592   -177.403572
PG13 -12909.152564  18409.106491  13857.450656    268.645110
PG14 -23174.515371 -12357.307122  -4214.852522    -88.706321
PG15  -3430.964540  24974.862780   7425.357704    -80.593681
PG16  15122.259086  -6309.990944  20730.602455   -474.750400
PG17 -13203.965680  -8688.518687 -20905.463926    580.705181
PG18  11786.517095  10470.352942  21386.179854    230.990341
PG19 -15020.352283   -265.894313 -22155.066072    124.503853
PG20 -18890.774758   5792.010399  17634.694677    516.516457
PG21  14074.018856 -18477.497486 -11595.554774    158.702571
PG22  15227.830145  -3587.210736 -21037.224580    219.961824
PG23  19788.678173  16694.271291   6143.233465     -2.508673
PG24  -7843.013446  19324.977701 -16503.715415    271.959672
PG25  14310.496046  19101.198174 -12231.405314    291.469801
PG26  23026.426416   1734.715496  13308.843564    186.766321
PG27  12274.200942 -15735.328435  17123.305280    136.218520
PG28 -22380.885738  -7221.086138 -11599.904527    391.275211
PG29   4409.111973  23873.145853  10662.721515   -485.395889
PG30 -19640.476694  -4557.129577  17480.179380   -515.906974
PG31  24719.629669  -4975.995681  -9189.868076   -166.680950
PG32  14967.877957   3864.788859 -21479.079484    -75.403130
PJ01 -26381.583396  22971.384519  28567.229318    225.419296
PJ02 -28342.726812  14739.698775 -22984.408291     -1.629104
PJ03 -25917.845442  32309.424697  -3236.789093     -0.728884
PJ07      0.000000      0.000000      0.000000 999999.999999
PR01   6749.548427  23301.438250   7870.810028      7.147261
PR02  13811.369004  17906.768585 -11820.015354    510.980466
PR03  12272.395571   1667.606971 -22261.858664     52.240906
PR04   3685.622998 -15129.594521 -20169.600018    129.640209
PR05  -6721.648445 -23605.820333  -6887.286559     88.486314
PR06 -14584.561796 -16602.879708  12712.957503    -34.912181
PR07 -12011.988172   -794.972780  22523.198556     32.102658
PR08  -3704.148032  15289.850525  20146.535298    -63.766852
PR09 -21543.922234  -7589.842553  11439.414988     41.740696
PR10 -25075.003993   -169.271664  -4464.500082    -80.135150
PR11 -14602.577030   7877.761187 -19371.921073     44.745779
PR12   5308.519435  11246.316729 -22255.680543     17.299273
PR13  20764.093375   7937.640841 -12537.322460    -18.808286
PR14  24827.688167   -367.680189   5822.236578     74.848180
PR15  13989.286920  -8073.224019  19756.736194     97.906844
PR17  16619.535592  -9699.759277  16772.606851    505.349195
PR18  15784.145228 -19943.474896   1501.582225    108.704253
PR19   7981.482048 -19931.679025 -13767.047341   -179.732854
PR20  -7451.178800  -7213.504560 -23292.580351    -65.728679
PR21 -16894.817032  10817.282301 -15740.753481   -281.374819
PR22 -15647.949702  20208.023083   -558.847988   -167.412102
PR23  -3180.990080  17618.085385  18169.218357    -31.802209
PR24   8453.098522   6753.384975  23118.649340     82.127114
EOF
